{"type":"FeatureCollection","features":[{"type":"Feature","properties":{"khasra_no":"111","owner_name":"State Government","land_use":"institutional","category":"park","area_sqm":11486.12,"fid":"govt_111"},"geometry":{"type":"Polygon","coordinates":[[[78.77712214714636,28.45547207638939],[78.77710003194865,28.45652880374005],[78.77609939284837,28.456512443774965],[78.77612151798124,28.45545571714117],[78.77712214714636,28.45547207638939]]]}},{"type":"Feature","properties":{"khasra_no":"114","owner_name":"State Government","land_use":"institutional","category":"office","area_sqm":9450.14,"fid":"govt_114"},"geometry":{"type":"Polygon","coordinates":[[[78.77843411047598,28.45271582995835],[78.77841845376,28.453464486926045],[78.77725644111493,28.453445500486747],[78.77727210600384,28.452696844108505],[78.77843411047598,28.45271582995835]]]}},{"type":"Feature","properties":{"khasra_no":"141","owner_name":"State Government","land_use":"institutional","category":"park","area_sqm":13313.44,"fid":"govt_141"},"geometry":{"type":"Polygon","coordinates":[[[78.78317366309447,28.45557085546016],[78.78315160798232,28.45662758713933],[78.78199177155543,28.45660867531815],[78.78201383818356,28.45555194446766],[78.78317366309447,28.45557085546016]]]}}]}