{"type": "FeatureCollection", "features": [{"type": "Feature", "geometry": {"type": "Polygon", "coordinates": [[[78.7842518, 28.4549252], [78.7844007, 28.4548627], [78.7843323, 28.4547367], [78.7841834, 28.4547992], [78.7842518, 28.4549252]]]}, "properties": {"building": "yes", "_source": "openstreetmap", "_osm_id": 736832337}}, {"type": "Feature", "geometry": {"type": "Polygon", "coordinates": [[[78.7820269, 28.4535727], [78.7820313, 28.4536667], [78.7821936, 28.4536608], [78.7821892, 28.4535668], [78.7820269, 28.4535727]]]}, "properties": {"building": "yes", "_source": "openstreetmap", "_osm_id": 753165185}}, {"type": "Feature", "geometry": {"type": "Polygon", "coordinates": [[[78.7667605, 28.4645877], [78.7666762, 28.4646514], [78.766826, 28.4648049], [78.7669104, 28.4647413], [78.7667605, 28.4645877]]]}, "properties": {"building": "yes", "_source": "openstreetmap", "_osm_id": 1007212684}}, {"type": "Feature", "geometry": {"type": "Polygon", "coordinates": [[[78.767194, 28.4649281], [78.7670663, 28.4650339], [78.7671381, 28.4651009], [78.7672658, 28.4649952], [78.767194, 28.4649281]]]}, "properties": {"building": "yes", "_source": "openstreetmap", "_osm_id": 1455417157}}, {"type": "Feature", "geometry": {"type": "Polygon", "coordinates": [[[78.7671236, 28.4647896], [78.7672289, 28.464889], [78.7671708, 28.4649366], [78.7670655, 28.4648372], [78.7671236, 28.4647896]]]}, "properties": {"building": "yes", "_source": "openstreetmap", "_osm_id": 1455417158}}, {"type": "Feature", "geometry": {"type": "Polygon", "coordinates": [[[78.767591, 28.4630215], [78.7675374, 28.4630596], [78.7674782, 28.4629951], [78.7676303, 28.4628872], [78.7677103, 28.4629743], [78.7676399, 28.4630243], [78.7676109, 28.4629928], [78.7675829, 28.4630126], [78.767591, 28.4630215]]]}, "properties": {"building": "yes", "_source": "openstreetmap", "_osm_id": 1455417159}}]}